start=new Date('2023-05-01T00:00:00.000Z').valueOf();
sats=[{"PERIAPSIS":"558.235","SITE":"AFETR","OBJECT_NAME":"STARLINK-5700","ARG_OF_PERICENTER":"267.7493","RCS_SIZE":"LARGE","MEAN_ANOMALY":"289.5358","INCLINATION":"42.9995","PERIOD":"95.838","BSTAR":"-0.00153000000000","ELEMENT_SET_NO":"999","EPOCH":"2023-04-30T16:00:00.999936","ECCENTRICITY":"0.00012410","SEMIMAJOR_AXIS":"6937.230","COUNTRY_CODE":"US","EPHEMERIS_TYPE":"0","CENTER_NAME":"EARTH","TIME_SYSTEM":"UTC","CLASSIFICATION_TYPE":"U","TLE_LINE1":"1 55607U 23020AQ  23120.66667824 -.00020808  00000-0 -15300-2 0  9994","LAUNCH_DATE":"2023-02-12","NORAD_CAT_ID":"55607","OBJECT_TYPE":"PAYLOAD","GP_ID":"230951610","MEAN_MOTION_DDOT":"0.0000000000000","APOAPSIS":"559.956","OBJECT_ID":"2023-020AQ","REF_FRAME":"TEME","DECAY_DATE":null,"MEAN_MOTION_DOT":"-0.00020808","MEAN_ELEMENT_THEORY":"SGP4","FILE":"3897351","RA_OF_ASC_NODE":"264.7690","MEAN_MOTION":"15.02531475","TLE_LINE2":"2 55607  42.9995 264.7690 0001241 267.7493 289.5358 15.02531475 12010","REV_AT_EPOCH":"1201"},{"MEAN_MOTION_DOT":"-0.00008265","DECAY_DATE":null,"MEAN_ELEMENT_THEORY":"SGP4","RA_OF_ASC_NODE":"263.8680","FILE":"3897646","TLE_LINE2":"2 55608  43.0012 263.8680 0001783 295.1567  64.9091 15.04426560 12042","REV_AT_EPOCH":"1204","MEAN_MOTION":"15.04426560","REF_FRAME":"TEME","CLASSIFICATION_TYPE":"U","TLE_LINE1":"1 55608U 23020AR  23120.82792205 -.00008265  00000-0 -56780-3 0  9996","LAUNCH_DATE":"2023-02-12","NORAD_CAT_ID":"55608","GP_ID":"230984675","OBJECT_TYPE":"PAYLOAD","OBJECT_ID":"2023-020AR","MEAN_MOTION_DDOT":"0.0000000000000","APOAPSIS":"554.504","TIME_SYSTEM":"UTC","CENTER_NAME":"EARTH","COUNTRY_CODE":"US","EPHEMERIS_TYPE":"0","BSTAR":"-0.00056780000000","ECCENTRICITY":"0.00017830","ELEMENT_SET_NO":"999","EPOCH":"2023-04-30T19:52:12.465120","SEMIMAJOR_AXIS":"6931.403","ARG_OF_PERICENTER":"295.1567","OBJECT_NAME":"STARLINK-5726","RCS_SIZE":"LARGE","INCLINATION":"43.0012","PERIOD":"95.718","MEAN_ANOMALY":"64.9091","PERIAPSIS":"552.033","SITE":"AFETR"},{"MEAN_MOTION":"15.02530460","REV_AT_EPOCH":"130","TLE_LINE2":"2 55609  42.9998 265.2501 0001346 262.3715 191.5349 15.02530460  1301","FILE":"3897442","RA_OF_ASC_NODE":"265.2501","MEAN_ELEMENT_THEORY":"SGP4","DECAY_DATE":null,"MEAN_MOTION_DOT":"-0.00011250","REF_FRAME":"TEME","APOAPSIS":"560.032","MEAN_MOTION_DDOT":"0.0000000000000","OBJECT_ID":"2023-020AS","OBJECT_TYPE":"PAYLOAD","GP_ID":"230980128","NORAD_CAT_ID":"55609","CLASSIFICATION_TYPE":"U","TLE_LINE1":"1 55609U 23020AS  23120.58334491 -.00011250  00000-0 -81917-3 0  9997","LAUNCH_DATE":"2023-02-12","TIME_SYSTEM":"UTC","CENTER_NAME":"EARTH","EPHEMERIS_TYPE":"0","COUNTRY_CODE":"US","SEMIMAJOR_AXIS":"6937.234","EPOCH":"2023-04-30T14:00:01.000224","ELEMENT_SET_NO":"999","ECCENTRICITY":"0.00013460","BSTAR":"-0.00081917000000","MEAN_ANOMALY":"191.5349","INCLINATION":"42.9998","PERIOD":"95.838","RCS_SIZE":"LARGE","OBJECT_NAME":"STARLINK-5719","ARG_OF_PERICENTER":"262.3715","SITE":"AFETR","PERIAPSIS":"558.165"},{"TIME_SYSTEM":"UTC","CENTER_NAME":"EARTH","GP_ID":"230985038","OBJECT_TYPE":"PAYLOAD","OBJECT_ID":"2023-020AT","APOAPSIS":"557.524","MEAN_MOTION_DDOT":"0.0000000000000","CLASSIFICATION_TYPE":"U","TLE_LINE1":"1 55610U 23020AT  23120.75262696 -.00115881  00000-0 -84856-2 0  9994","LAUNCH_DATE":"2023-02-12","NORAD_CAT_ID":"55610","REF_FRAME":"TEME","RA_OF_ASC_NODE":"264.1626","FILE":"3897646","REV_AT_EPOCH":"1203","TLE_LINE2":"2 55610  43.0009 264.1626 0002008 319.5538  40.5155 15.03494850 12031","MEAN_MOTION":"15.03494850","MEAN_MOTION_DOT":"-0.00115881","DECAY_DATE":null,"MEAN_ELEMENT_THEORY":"SGP4","SITE":"AFETR","PERIAPSIS":"554.739","RCS_SIZE":"LARGE","INCLINATION":"43.0009","PERIOD":"95.777","MEAN_ANOMALY":"40.5155","ARG_OF_PERICENTER":"319.5538","OBJECT_NAME":"STARLINK-5722","ECCENTRICITY":"0.00020080","ELEMENT_SET_NO":"999","EPOCH":"2023-04-30T18:03:46.969344","SEMIMAJOR_AXIS":"6934.267","BSTAR":"-0.00848560000000","COUNTRY_CODE":"US","EPHEMERIS_TYPE":"0"},{"OBJECT_NAME":"STARLINK-5730","ARG_OF_PERICENTER":"272.0459","RCS_SIZE":"LARGE","MEAN_ANOMALY":"236.0326","INCLINATION":"42.9999","PERIOD":"95.837","PERIAPSIS":"558.117","SITE":"AFETR","COUNTRY_CODE":"US","EPHEMERIS_TYPE":"0","BSTAR":"-0.00294380000000","ELEMENT_SET_NO":"999","EPOCH":"2023-04-30T14:00:01.000224","ECCENTRICITY":"0.00013410","SEMIMAJOR_AXIS":"6937.182","LAUNCH_DATE":"2023-02-12","TLE_LINE1":"1 55611U 23020AU  23120.58334491 -.00039757  00000-0 -29438-2 0  9991","CLASSIFICATION_TYPE":"U","NORAD_CAT_ID":"55611","OBJECT_TYPE":"PAYLOAD","GP_ID":"230979127","MEAN_MOTION_DDOT":"0.0000000000000","APOAPSIS":"559.978","OBJECT_ID":"2023-020AU","TIME_SYSTEM":"UTC","CENTER_NAME":"EARTH","DECAY_DATE":null,"MEAN_MOTION_DOT":"-0.00039757","MEAN_ELEMENT_THEORY":"SGP4","FILE":"3897442","RA_OF_ASC_NODE":"265.1208","MEAN_MOTION":"15.02547131","TLE_LINE2":"2 55611  42.9999 265.1208 0001341 272.0459 236.0326 15.02547131  1309","REV_AT_EPOCH":"130","REF_FRAME":"TEME"},{"BSTAR":"-0.00334660000000","ELEMENT_SET_NO":"999","EPOCH":"2023-04-30T19:36:04.240800","ECCENTRICITY":"0.00029080","SEMIMAJOR_AXIS":"6932.396","COUNTRY_CODE":"US","EPHEMERIS_TYPE":"0","PERIAPSIS":"552.245","SITE":"AFETR","OBJECT_NAME":"STARLINK-5734","ARG_OF_PERICENTER":"347.6129","RCS_SIZE":"LARGE","MEAN_ANOMALY":"12.4642","PERIOD":"95.738","INCLINATION":"43.0016","REF_FRAME":"TEME","DECAY_DATE":null,"MEAN_MOTION_DOT":"-0.00047032","MEAN_ELEMENT_THEORY":"SGP4","FILE":"3897646","RA_OF_ASC_NODE":"263.7869","MEAN_MOTION":"15.04103428","REV_AT_EPOCH":"1204","TLE_LINE2":"2 55612  43.0016 263.7869 0002908 347.6129  12.4642 15.04103428 12041","CENTER_NAME":"EARTH","TIME_SYSTEM":"UTC","TLE_LINE1":"1 55612U 23020AV  23120.81671575 -.00047032  00000-0 -33466-2 0  9996","LAUNCH_DATE":"2023-02-12","CLASSIFICATION_TYPE":"U","NORAD_CAT_ID":"55612","OBJECT_TYPE":"PAYLOAD","GP_ID":"230985041","APOAPSIS":"556.277","MEAN_MOTION_DDOT":"0.0000000000000","OBJECT_ID":"2023-020AV"},{"EPHEMERIS_TYPE":"0","COUNTRY_CODE":"US","SEMIMAJOR_AXIS":"6931.220","ECCENTRICITY":"0.00014770","EPOCH":"2023-04-30T10:16:13.263456","ELEMENT_SET_NO":"999","BSTAR":"-0.00001599500000","INCLINATION":"42.9992","PERIOD":"95.714","MEAN_ANOMALY":"93.2498","RCS_SIZE":"LARGE","ARG_OF_PERICENTER":"266.8176","OBJECT_NAME":"STARLINK-5715","SITE":"AFETR","PERIAPSIS":"552.061","REV_AT_EPOCH":"1198","TLE_LINE2":"2 55613  42.9992 266.0266 0001477 266.8176  93.2498 15.04486291 11984","MEAN_MOTION":"15.04486291","RA_OF_ASC_NODE":"266.0266","FILE":"3897442","MEAN_ELEMENT_THEORY":"SGP4","MEAN_MOTION_DOT":"-0.00000435","DECAY_DATE":null,"REF_FRAME":"TEME","OBJECT_ID":"2023-020AW","APOAPSIS":"554.109","MEAN_MOTION_DDOT":"0.0000000000000","GP_ID":"230979628","OBJECT_TYPE":"PAYLOAD","NORAD_CAT_ID":"55613","LAUNCH_DATE":"2023-02-12","TLE_LINE1":"1 55613U 23020AW  23120.42793129 -.00000435  00000-0 -15995-4 0  9999","CLASSIFICATION_TYPE":"U","CENTER_NAME":"EARTH","TIME_SYSTEM":"UTC"},{"REF_FRAME":"TEME","FILE":"3897442","RA_OF_ASC_NODE":"253.4333","MEAN_MOTION":"15.27420185","TLE_LINE2":"2 55614  42.9972 253.4333 0001283 271.1580  21.3596 15.27420185  1302","REV_AT_EPOCH":"130","DECAY_DATE":null,"MEAN_MOTION_DOT":"-0.00923478","MEAN_ELEMENT_THEORY":"SGP4","TIME_SYSTEM":"UTC","CENTER_NAME":"EARTH","OBJECT_TYPE":"PAYLOAD","GP_ID":"230980379","MEAN_MOTION_DDOT":"0.0000000000000","APOAPSIS":"484.410","OBJECT_ID":"2023-020AX","TLE_LINE1":"1 55614U 23020AX  23120.58334491 -.00923478  00000-0 -36370-1 0  9998","CLASSIFICATION_TYPE":"U","LAUNCH_DATE":"2023-02-12","NORAD_CAT_ID":"55614","ELEMENT_SET_NO":"999","EPOCH":"2023-04-30T14:00:01.000224","ECCENTRICITY":"0.00012830","SEMIMAJOR_AXIS":"6861.665","BSTAR":"-0.03637000000000","COUNTRY_CODE":"US","EPHEMERIS_TYPE":"0","SITE":"AFETR","PERIAPSIS":"482.649","RCS_SIZE":"LARGE","MEAN_ANOMALY":"21.3596","INCLINATION":"42.9972","PERIOD":"94.277","OBJECT_NAME":"STARLINK-5714","ARG_OF_PERICENTER":"271.1580"},{"EPHEMERIS_TYPE":"0","COUNTRY_CODE":"US","SEMIMAJOR_AXIS":"6931.290","ECCENTRICITY":"0.00022610","ELEMENT_SET_NO":"999","EPOCH":"2023-04-30T09:58:43.276224","BSTAR":"-0.00023764000000","PERIOD":"95.715","INCLINATION":"42.9986","MEAN_ANOMALY":"110.6550","RCS_SIZE":"LARGE","ARG_OF_PERICENTER":"249.4050","OBJECT_NAME":"STARLINK-5712","SITE":"AFETR","PERIAPSIS":"551.588","TLE_LINE2":"2 55615  42.9986 265.9301 0002261 249.4050 110.6550 15.04463504 11982","REV_AT_EPOCH":"1198","MEAN_MOTION":"15.04463504","RA_OF_ASC_NODE":"265.9301","FILE":"3897442","MEAN_ELEMENT_THEORY":"SGP4","MEAN_MOTION_DOT":"-0.00003585","DECAY_DATE":null,"REF_FRAME":"TEME","OBJECT_ID":"2023-020AY","MEAN_MOTION_DDOT":"0.0000000000000","APOAPSIS":"554.722","GP_ID":"230978627","OBJECT_TYPE":"PAYLOAD","NORAD_CAT_ID":"55615","TLE_LINE1":"1 55615U 23020AY  23120.41577866 -.00003585  00000-0 -23764-3 0  9999","CLASSIFICATION_TYPE":"U","LAUNCH_DATE":"2023-02-12","TIME_SYSTEM":"UTC","CENTER_NAME":"EARTH"},{"PERIAPSIS":"552.274","SITE":"AFETR","OBJECT_NAME":"STARLINK-5710","ARG_OF_PERICENTER":"248.2421","RCS_SIZE":"LARGE","MEAN_ANOMALY":"111.8296","PERIOD":"95.714","INCLINATION":"43.0002","BSTAR":"0.00006210000000","ELEMENT_SET_NO":"999","EPOCH":"2023-04-30T19:21:28.480896","ECCENTRICITY":"0.00011820","SEMIMAJOR_AXIS":"6931.228","COUNTRY_CODE":"US","EPHEMERIS_TYPE":"0","TIME_SYSTEM":"UTC","CENTER_NAME":"EARTH","LAUNCH_DATE":"2023-02-12","TLE_LINE1":"1 55616U 23020AZ  23120.80657964  .00000676  00000-0  62100-4 0  9995","CLASSIFICATION_TYPE":"U","NORAD_CAT_ID":"55616","OBJECT_TYPE":"PAYLOAD","GP_ID":"230985122","MEAN_MOTION_DDOT":"0.0000000000000","APOAPSIS":"553.913","OBJECT_ID":"2023-020AZ","REF_FRAME":"TEME","DECAY_DATE":null,"MEAN_MOTION_DOT":"0.00000676","MEAN_ELEMENT_THEORY":"SGP4","FILE":"3897650","RA_OF_ASC_NODE":"263.7046","MEAN_MOTION":"15.04483557","TLE_LINE2":"2 55616  43.0002 263.7046 0001182 248.2421 111.8296 15.04483557 12044","REV_AT_EPOCH":"1204"}];
